NORAD_CAT_ID,OBJECT_NAME,OBJECT_TYPE,EPOCH,MEAN_MOTION,ECCENTRICITY,INCLINATION,RA_OF_ASC_NODE,ARG_OF_PERICENTER,MEAN_ANOMALY,BSTAR,MEAN_MOTION_DOT,MEAN_MOTION_DDOT,TLE_LINE0,TLE_LINE1,TLE_LINE2,SEMIMAJOR_AXIS,PERIOD,APOGEE,PERIGEE,DECAYED
52998.0,STARLINK-4254,PAYLOAD,2023-04-20 19:15:34,15.08839146,8.64e-05,53.2168,145.1117,83.3309,276.7781,7.4892e-05,9.04e-06,0.0,0 STARLINK-4254,1 52998U 22076N   23110.80248384  .00000904  00000-0  74892-4 0  9991,2 52998  53.2168 145.1117 0000864  83.3309 276.7781 15.08839146 43745,6917.883,95.438,540.346,539.15,0.0
52998.0,STARLINK-4254,PAYLOAD,2023-04-21 06:23:16,15.08841566,8.34e-05,53.2161,143.0306,86.6718,273.437,0.00013766,1.904e-05,0.0,0 STARLINK-4254,1 52998U 22076N   23111.26616196  .00001904  00000-0  13766-3 0  9995,2 52998  53.2161 143.0306 0000834  86.6718 273.4370 15.08841566 43817,6917.876,95.437,540.318,539.164,0.0
52998.0,STARLINK-4254,PAYLOAD,2023-04-21 14:20:11,15.08849221,7.6e-05,53.2161,141.544,87.6646,272.4433,8.1054e-05,1.003e-05,0.0,0 STARLINK-4254,1 52998U 22076N   23111.59735823  .00001003  00000-0  81054-4 0  9996,2 52998  53.2161 141.5440 0000760  87.6646 272.4433 15.08849221 43868,6917.852,95.437,540.243,539.191,0.0
52998.0,STARLINK-4254,PAYLOAD,2023-04-22 11:00:12,15.08850574,8.54e-05,53.2166,137.6761,79.0201,281.0887,0.00013481,1.859e-05,0.0,0 STARLINK-4254,1 52998U 22076N   23112.45847584  .00001859  00000-0  13481-3 0  9997,2 52998  53.2166 137.6761 0000854  79.0201 281.0887 15.08850574 43997,6917.848,95.437,540.304,539.122,0.0
52998.0,STARLINK-4254,PAYLOAD,2023-04-22 18:57:08,15.08837374,0.0001031,53.2173,136.1886,86.4915,273.6195,1.7936e-05,-2e-08,0.0,0 STARLINK-4254,1 52998U 22076N   23112.78968618 -.00000002  00000-0  17936-4 0  9995,2 52998  53.2173 136.1886 0001031  86.4915 273.6195 15.08837374 44048,6917.888,95.438,540.467,539.04,0.0
52998.0,STARLINK-4254,PAYLOAD,2023-04-23 12:26:22,15.08848083,0.0001084,53.2168,132.9184,80.2852,279.8262,4.6521e-05,4.53e-06,0.0,0 STARLINK-4254,1 52998U 22076N   23113.51831798  .00000453  00000-0  46521-4 0  9996,2 52998  53.2168 132.9184 0001084  80.2852 279.8262 15.08848083 44623,6917.856,95.437,540.471,538.971,0.0
52998.0,STARLINK-4254,PAYLOAD,2023-04-24 12:17:08,15.08861416,0.0001156,53.2158,128.4596,77.756,282.3562,0.00043379,6.627e-05,0.0,0 STARLINK-4254,1 52998U 22076N   23114.51190889  .00006627  00000-0  43379-3 0  9992,2 52998  53.2158 128.4596 0001156  77.7560 282.3562 15.08861416 44308,6917.815,95.436,540.48,538.88,0.0
52998.0,STARLINK-4254,PAYLOAD,2023-04-25 12:07:56,15.08833925,0.0001014,53.2156,123.9993,93.3457,266.7651,-3.0267e-05,-7.69e-06,0.0,0 STARLINK-4254,1 52998U 22076N   23115.50552017 -.00000769  00000-0 -30267-4 0  9993,2 52998  53.2156 123.9993 0001014  93.3457 266.7651 15.08833925 44454,6917.899,95.438,540.465,539.062,0.0
52998.0,STARLINK-4254,PAYLOAD,2023-04-26 11:58:44,15.08837097,0.0001042,53.2164,119.5382,98.0896,262.0215,8.5515e-05,1.073e-05,0.0,0 STARLINK-4254,1 52998U 22076N   23116.49912338  .00001073  00000-0  85515-4 0  9991,2 52998  53.2164 119.5382 0001042  98.0896 262.0215 15.08837097 44602,6917.889,95.438,540.475,539.033,0.0
52998.0,STARLINK-4254,PAYLOAD,2023-04-26 16:44:54,15.08832346,0.0001063,53.2164,118.6462,99.5233,260.588,0.00035455,5.358e-05,0.0,0 STARLINK-4254,1 52998U 22076N   23116.69784752  .00005358  00000-0  35455-3 0  9997,2 52998  53.2164 118.6462 0001063  99.5233 260.5880 15.08832346 44631,6917.904,95.438,540.504,539.033,0.0
52998.0,STARLINK-4254,PAYLOAD,2023-04-27 10:14:08,15.08843917,0.0001074,53.2165,115.3751,97.5868,262.5246,0.00029064,4.341e-05,0.0,0 STARLINK-4254,1 52998U 22076N   23117.42648378  .00004341  00000-0  29064-3 0  9992,2 52998  53.2165 115.3751 0001074  97.5868 262.5246 15.08843917 44747,6917.868,95.437,540.476,538.99,0.0
52998.0,STARLINK-4254,PAYLOAD,2023-04-28 05:18:45,15.08840091,0.0001096,53.2165,111.8071,96.5007,263.6109,7.4226e-05,8.94e-06,0.0,0 STARLINK-4254,1 52998U 22076N   23118.22136481  .00000894  00000-0  74226-4 0  9998,2 52998  53.2165 111.8071 0001096  96.5007 263.6109 15.08840091 45337,6917.88,95.438,540.503,538.987,0.0
52998.0,STARLINK-4254,PAYLOAD,2023-04-28 08:29:32,15.08841266,0.0001108,53.2167,111.2122,95.7962,264.3157,0.00010849,1.439e-05,0.0,0 STARLINK-4254,1 52998U 22076N   23118.35384491  .00001439  00000-0  10849-3 0  9994,2 52998  53.2167 111.2122 0001108  95.7962 264.3157 15.08841266 44880,6917.877,95.437,540.508,538.975,0.0
52998.0,STARLINK-4254,PAYLOAD,2023-04-29 08:20:19,15.08841539,0.0001168,53.2175,106.7515,89.4704,270.6422,6.358e-05,7.24e-06,0.0,0 STARLINK-4254,1 52998U 22076N   23119.34744771  .00000724  00000-0  63580-4 0  9992,2 52998  53.2175 106.7515 0001168  89.4704 270.6422 15.08841539 45030,6917.876,95.437,540.549,538.933,0.0
52998.0,STARLINK-4254,PAYLOAD,2023-04-30 08:11:06,15.08842223,0.0001239,53.2175,102.2904,87.5868,272.5266,8.3654e-05,1.044e-05,0.0,0 STARLINK-4254,1 52998U 22076N   23120.34104756  .00001044  00000-0  83654-4 0  9997,2 52998  53.2175 102.2904 0001239  87.5868 272.5266 15.08842223 45186,6917.874,95.437,540.596,538.881,0.0
52998.0,STARLINK-4254,PAYLOAD,2023-05-01 04:51:07,15.08843227,0.0001274,53.2183,98.4228,88.3259,271.7879,9.6754e-05,1.252e-05,0.0,0 STARLINK-4254,1 52998U 22076N   23121.20216673  .00001252  00000-0  96754-4 0  9991,2 52998  53.2183  98.4228 0001274  88.3259 271.7879 15.08843227 45784,6917.871,95.437,540.617,538.854,0.0
52998.0,STARLINK-4254,PAYLOAD,2023-05-01 22:20:21,15.08841422,0.0001176,53.2175,95.1548,89.0139,271.0988,5.5122e-05,5.9e-06,0.0,0 STARLINK-4254,1 52998U 22076N   23121.93080924  .00000590  00000-0  55122-4 0  9997,2 52998  53.2175  95.1548 0001176  89.0139 271.0988 15.08841422 45420,6917.876,95.437,540.555,538.928,0.0
52998.0,STARLINK-4254,PAYLOAD,2023-05-02 07:52:40,15.08844691,0.0001225,53.2179,93.3701,89.9437,270.1696,7.7945e-05,9.53e-06,0.0,0 STARLINK-4254,1 52998U 22076N   23122.32824593  .00000953  00000-0  77945-4 0  9999,2 52998  53.2179  93.3701 0001225  89.9437 270.1696 15.08844691 45955,6917.866,95.437,540.578,538.884,0.0
52998.0,STARLINK-4254,PAYLOAD,2023-05-03 04:32:41,15.08840522,0.0001339,53.2178,89.5037,98.5599,261.5545,7.7203e-05,9.41e-06,0.0,0 STARLINK-4254,1 52998U 22076N   23123.18936810  .00000941  00000-0  77203-4 0  9994,2 52998  53.2178  89.5037 0001339  98.5599 261.5545 15.08840522 46085,6917.879,95.438,540.67,538.817,0.0
52998.0,STARLINK-4254,PAYLOAD,2023-05-03 07:43:27,15.08841062,0.000134,53.2178,88.909,98.6894,261.4249,7.9145e-05,9.72e-06,0.0,0 STARLINK-4254,1 52998U 22076N   23123.32184770  .00000972  00000-0  79145-4 0  9991,2 52998  53.2178  88.9090 0001340  98.6894 261.4249 15.08841062 45638,6917.877,95.437,540.669,538.815,0.0
52998.0,STARLINK-4254,PAYLOAD,2023-05-03 22:01:56,15.08837905,0.0001385,53.2176,86.2322,103.6269,256.4877,3.0974e-05,2.05e-06,0.0,0 STARLINK-4254,1 52998U 22076N   23123.91801102  .00000205  00000-0  30974-4 0  9997,2 52998  53.2176  86.2322 0001385 103.6269 256.4877 15.08837905 45729,6917.887,95.438,540.71,538.794,0.0
52998.0,STARLINK-4254,PAYLOAD,2023-05-04 07:34:14,15.08843561,0.0001276,53.2175,84.4496,90.7143,269.3996,7.6e-05,9.22e-06,0.0,0 STARLINK-4254,1 52998U 22076N   23124.31544657  .00000922  00000-0  76000-4 0  9997,2 52998  53.2175  84.4496 0001276  90.7143 269.3996 15.08843561 46255,6917.87,95.437,540.617,538.852,0.0
52998.0,STARLINK-4254,PAYLOAD,2023-05-04 21:52:43,15.08834975,0.0001261,53.2179,81.7737,93.2876,266.826,6.9005e-06,-1.78e-06,0.0,0 STARLINK-4254,1 52998U 22076N   23124.91161521 -.00000178  00000-0  69005-5 0  9990,2 52998  53.2179  81.7737 0001261  93.2876 266.8260 15.08834975 46347,6917.896,95.438,540.633,538.888,0.0
52998.0,STARLINK-4254,PAYLOAD,2023-05-05 07:25:01,15.08844245,0.0001236,53.2184,79.9888,98.365,261.7482,5.7812e-06,-1.96e-06,0.0,0 STARLINK-4254,1 52998U 22076N   23125.30904905 -.00000196  00000-0  57812-5 0  9998,2 52998  53.2184  79.9888 0001236  98.3650 261.7482 15.08844245 46405,6917.867,95.437,540.587,538.877,0.0
52998.0,STARLINK-4254,PAYLOAD,2023-05-06 00:54:17,15.0883559,0.0001158,53.2179,76.7172,101.0711,259.0411,1.1616e-05,-1.03e-06,0.0,0 STARLINK-4254,1 52998U 22076N   23126.03769676 -.00000103  00000-0  11616-4 0  9992,2 52998  53.2179  76.7172 0001158 101.0711 259.0411 15.08835590 46510,6917.894,95.438,540.56,538.958,0.0
52998.0,STARLINK-4254,PAYLOAD,2023-05-06 05:40:26,15.08841816,0.0001092,53.2176,75.8256,96.0856,264.0261,5.0168e-05,5.11e-06,0.0,0 STARLINK-4254,1 52998U 22076N   23126.23641300  .00000511  00000-0  50168-4 0  9994,2 52998  53.2176  75.8256 0001092  96.0856 264.0261 15.08841816 46078,6917.875,95.437,540.495,538.984,0.0
52998.0,STARLINK-4254,PAYLOAD,2023-05-07 02:20:26,15.08851867,0.0001097,53.2178,71.9604,101.5846,258.5269,0.00015386,2.162e-05,0.0,0 STARLINK-4254,1 52998U 22076N   23127.09752361  .00002162  00000-0  15386-3 0  9995,2 52998  53.2178  71.9604 0001097 101.5846 258.5269 15.08851867 46679,6917.844,95.437,540.468,538.95,0.0
52998.0,STARLINK-4254,PAYLOAD,2023-05-07 05:31:12,15.0885579,0.0001108,53.2179,71.3654,101.4546,258.657,0.00019205,2.771e-05,0.0,0 STARLINK-4254,1 52998U 22076N   23127.23000036  .00002771  00000-0  19205-3 0  9996,2 52998  53.2179  71.3654 0001108 101.4546 258.6570 15.08855790 46224,6917.832,95.437,540.464,538.931,0.0
52998.0,STARLINK-4254,PAYLOAD,2023-05-08 02:11:14,15.08833672,0.0001208,53.2174,67.501,95.8867,264.2263,-1.5069e-05,-5.28e-06,0.0,0 STARLINK-4254,1 52998U 22076N   23128.09113853 -.00000528  00000-0 -15069-4 0  9998,2 52998  53.2174  67.5010 0001208  95.8867 264.2263 15.08833672 46828,6917.9,95.438,540.6,538.929,0.0
52998.0,STARLINK-4254,PAYLOAD,2023-05-08 13:18:56,15.08836767,0.0001122,53.2173,65.4196,93.5863,266.5258,5.1536e-05,5.32e-06,0.0,0 STARLINK-4254,1 52998U 22076N   23128.55481904  .00000532  00000-0  51536-4 0  9996,2 52998  53.2173  65.4196 0001122  93.5863 266.5258 15.08836767 46428,6917.89,95.438,540.531,538.979,0.0
